0 EXPRESS AM-44
1 33595U 09007A   13282.32466226 -.00000102  00000-0  10000-3 0  2911
2 33595 000.0417 334.8790 0001119 342.2445 166.8840 01.00272379 17102
0 EXPRESS AM-44
1 33595U 09007A   13283.33897439 -.00000105  00000-0  10000-3 0  2921
2 33595 000.0403 336.0032 0001090 341.9780 172.1795 01.00272366 17112
0 EXPRESS AM-44
1 33595U 09007A   13284.36067620 -.00000108  00000-0  10000-3 0  2930
2 33595 000.0392 336.6479 0001087 340.2665 182.0657 01.00272312 17129
0 EXPRESS AM-44
1 33595U 09007A   13285.58247053 -.00000112  00000-0  10000-3 0  2941
2 33595 000.0373 338.5392 0001187 330.9199 270.5706 01.00272255 17137
0 EXPRESS AM-44
1 33595U 09007A   13286.77380228 -.00000113  00000-0  10000-3 0  2957
2 33595 000.0367 338.5983 0001189 331.8269 339.6588 01.00272242 17148
0 EXPRESS AM-44
1 33595U 09007A   13289.29094230 -.00000113  00000-0  10000-3 0  2963
2 33595 000.0400 348.0514 0000852 315.1503 175.5267 01.00271775 17178
0 EXPRESS AM-44
1 33595U 09007A   13290.31267522 -.00000111  00000-0  10000-3 0  2973
2 33595 000.0401 349.8847 0000860 312.9593 184.7146 01.00271776 17180
0 EXPRESS AM-44
1 33595U 09007A   13291.32019787 -.00000109  00000-0  10000-3 0  2981
2 33595 000.0394 349.0601 0001179 304.8476 197.3515 01.00271757 17195
0 EXPRESS AM-44
1 33595U 09007A   13292.33291644 -.00000107  00000-0  10000-3 0  2996
2 33595 000.0391 348.1805 0001181 305.3152 203.3380 01.00271711 17208
0 EXPRESS AM-44
1 33595U 09007A   13293.35497683 -.00000105  00000-0  10000-3 0  3001
2 33595 000.0374 345.4449 0001175 308.6281 211.7083 01.00271698 17213
0 EXPRESS AM-44
1 33595U 09007A   13294.82492074 -.00000102  00000-0  10000-3 0  3011
2 33595 000.0336 338.7684 0001138 313.8416 023.7991 01.00271706 17224
0 EXPRESS AM-44
1 33595U 09007A   13296.11863215 -.00000101  00000-0  10000-3 0  3024
2 33595 000.0326 337.8621 0001163 316.2707 129.2854 01.00271697 17243
